<?xml version='1.0' encoding='utf-8'?>
<q:quakeml xmlns="http://quakeml.org/xmlns/bed/1.2" xmlns:q="http://quakeml.org/xmlns/quakeml/1.2">
  <eventParameters publicID="smi:local/266babfe-3f9e-425f-943b-db0e54b433a7">
    <event publicID="smi:local/1a27ca85-e23e-4369-9626-6eec39c4fdd9">
      <origin publicID="smi:local/fe9aa84e-443f-4676-9c53-a7b62700b81b">
        <time>
          <value>2026-02-03T06:02:45.503557Z</value>
        </time>
        <latitude>
          <value>-38.04380941908954</value>
        </latitude>
        <longitude>
          <value>146.38629219007998</value>
        </longitude>
        <depth>
          <value>12109.375</value>
        </depth>
        <depthType>from location</depthType>
        <quality>
          <usedPhaseCount>35</usedPhaseCount>
        </quality>
        <evaluationMode>automatic</evaluationMode>
        <evaluationStatus>preliminary</evaluationStatus>
        <comment>
          <text>Localized by: SeisBench-PyOcto</text>
        </comment>
      </origin>
      <magnitude publicID="smi:local/caa6bdb9-63ab-4cd0-b7af-2892433daee2">
        <mag>
          <value>99.0</value>
        </mag>
        <type>ML</type>
      </magnitude>
      <pick publicID="smi:local/27561242-5e7e-4d51-8e00-06d3c0cd4693">
        <time>
          <value>2026-02-03T06:02:50.173000Z</value>
        </time>
        <waveformID networkCode="AM" stationCode="S6197" locationCode="00" channelCode="P"></waveformID>
        <phaseHint>P</phaseHint>
        <evaluationMode>automatic</evaluationMode>
        <evaluationStatus>preliminary</evaluationStatus>
        <comment id="smi:local/b4cc4335-e869-4a75-ab47-2e880ad7e9be">
          <text>residual=-0.012 s</text>
        </comment>
      </pick>
      <pick publicID="smi:local/07864352-3b15-44b3-9310-273f16dfcc48">
        <time>
          <value>2026-02-03T06:02:59.920000Z</value>
        </time>
        <waveformID networkCode="OZ" stationCode="CDNM" locationCode="60" channelCode="P"></waveformID>
        <phaseHint>P</phaseHint>
        <evaluationMode>automatic</evaluationMode>
        <evaluationStatus>preliminary</evaluationStatus>
        <comment id="smi:local/5416a309-3bcf-44ce-839f-877d509ee48d">
          <text>residual=0.084 s</text>
        </comment>
      </pick>
      <pick publicID="smi:local/a44bad41-b898-4924-831d-ffbb82089eb2">
        <time>
          <value>2026-02-03T06:03:10.080000Z</value>
        </time>
        <waveformID networkCode="OZ" stationCode="CDNM" locationCode="60" channelCode="S"></waveformID>
        <phaseHint>S</phaseHint>
        <evaluationMode>automatic</evaluationMode>
        <evaluationStatus>preliminary</evaluationStatus>
        <comment id="smi:local/21702442-de62-4d93-95e2-66242e320e8e">
          <text>residual=-0.220 s</text>
        </comment>
      </pick>
      <pick publicID="smi:local/b746873c-3aaf-4a15-acee-c0367eedccaa">
        <time>
          <value>2026-02-03T06:02:52.271667Z</value>
        </time>
        <waveformID networkCode="OZ" stationCode="GLMM" locationCode="" channelCode="P"></waveformID>
        <phaseHint>P</phaseHint>
        <evaluationMode>automatic</evaluationMode>
        <evaluationStatus>preliminary</evaluationStatus>
        <comment id="smi:local/b062d4be-3990-4584-a369-891725212399">
          <text>residual=-0.123 s</text>
        </comment>
      </pick>
      <pick publicID="smi:local/4dbbd12f-e51f-4a20-a4a6-7fb93d6747f9">
        <time>
          <value>2026-02-03T06:02:56.921667Z</value>
        </time>
        <waveformID networkCode="OZ" stationCode="GLMM" locationCode="" channelCode="S"></waveformID>
        <phaseHint>S</phaseHint>
        <evaluationMode>automatic</evaluationMode>
        <evaluationStatus>preliminary</evaluationStatus>
        <comment id="smi:local/ed233bc9-035d-45c9-be6e-341b509da5a4">
          <text>residual=-0.504 s</text>
        </comment>
      </pick>
      <pick publicID="smi:local/f5794910-8e17-416e-88d6-f92f769876a4">
        <time>
          <value>2026-02-03T06:02:51.073000Z</value>
        </time>
        <waveformID networkCode="OZ" stationCode="JEER" locationCode="" channelCode="P"></waveformID>
        <phaseHint>P</phaseHint>
        <evaluationMode>automatic</evaluationMode>
        <evaluationStatus>preliminary</evaluationStatus>
        <comment id="smi:local/98b632e8-a272-4b96-bf50-af822ee3046a">
          <text>residual=-0.432 s</text>
        </comment>
      </pick>
      <pick publicID="smi:local/07978e53-33f3-41ce-bce9-345b886748cf">
        <time>
          <value>2026-02-03T06:02:55.773000Z</value>
        </time>
        <waveformID networkCode="OZ" stationCode="JEER" locationCode="" channelCode="S"></waveformID>
        <phaseHint>S</phaseHint>
        <evaluationMode>automatic</evaluationMode>
        <evaluationStatus>preliminary</evaluationStatus>
        <comment id="smi:local/ab8aaaa0-fdc5-409b-94bd-32e17b22ec40">
          <text>residual=-0.113 s</text>
        </comment>
      </pick>
      <pick publicID="smi:local/85b563ec-c4e5-4805-95c8-f07a23674d2a">
        <time>
          <value>2026-02-03T06:02:56.090000Z</value>
        </time>
        <waveformID networkCode="OZ" stationCode="KORUM" locationCode="60" channelCode="P"></waveformID>
        <phaseHint>P</phaseHint>
        <evaluationMode>automatic</evaluationMode>
        <evaluationStatus>preliminary</evaluationStatus>
        <comment id="smi:local/9a819b6e-dca1-4c07-9623-61003311ac02">
          <text>residual=0.080 s</text>
        </comment>
      </pick>
      <pick publicID="smi:local/ca27da18-88b7-4a79-80ac-0010fb50f3d3">
        <time>
          <value>2026-02-03T06:03:03.790000Z</value>
        </time>
        <waveformID networkCode="OZ" stationCode="KORUM" locationCode="60" channelCode="S"></waveformID>
        <phaseHint>S</phaseHint>
        <evaluationMode>automatic</evaluationMode>
        <evaluationStatus>preliminary</evaluationStatus>
        <comment id="smi:local/46afd418-5896-4ff4-b138-7d8953ef6b12">
          <text>residual=0.110 s</text>
        </comment>
      </pick>
      <pick publicID="smi:local/a5752656-3a40-4c79-a519-09b69b74df51">
        <time>
          <value>2026-02-03T06:02:50.131000Z</value>
        </time>
        <waveformID networkCode="OZ" stationCode="TOT" locationCode="00" channelCode="P"></waveformID>
        <phaseHint>P</phaseHint>
        <evaluationMode>automatic</evaluationMode>
        <evaluationStatus>preliminary</evaluationStatus>
        <comment id="smi:local/cbbcedec-261f-4094-8047-ddba876a669c">
          <text>residual=0.010 s</text>
        </comment>
      </pick>
      <pick publicID="smi:local/eb056f40-27d9-4ae3-8741-53b1cddc3e47">
        <time>
          <value>2026-02-03T06:02:53.251000Z</value>
        </time>
        <waveformID networkCode="OZ" stationCode="TOT" locationCode="00" channelCode="S"></waveformID>
        <phaseHint>S</phaseHint>
        <evaluationMode>automatic</evaluationMode>
        <evaluationStatus>preliminary</evaluationStatus>
        <comment id="smi:local/98cb8536-7a94-479f-adca-f3c2ca3afac3">
          <text>residual=-0.242 s</text>
        </comment>
      </pick>
      <pick publicID="smi:local/220be49a-b145-4109-b87d-3d0c4e07ae2c">
        <time>
          <value>2026-02-03T06:02:52.987000Z</value>
        </time>
        <waveformID networkCode="OZ" stationCode="WILL" locationCode="00" channelCode="P"></waveformID>
        <phaseHint>P</phaseHint>
        <evaluationMode>automatic</evaluationMode>
        <evaluationStatus>preliminary</evaluationStatus>
        <comment id="smi:local/5acffb95-535f-4a4a-b7e3-d44c683c0c17">
          <text>residual=-0.300 s</text>
        </comment>
      </pick>
      <pick publicID="smi:local/1b760ce0-8d1d-4cfb-b3bb-0e83695e7765">
        <time>
          <value>2026-02-03T06:02:58.577000Z</value>
        </time>
        <waveformID networkCode="OZ" stationCode="WILL" locationCode="00" channelCode="S"></waveformID>
        <phaseHint>S</phaseHint>
        <evaluationMode>automatic</evaluationMode>
        <evaluationStatus>preliminary</evaluationStatus>
        <comment id="smi:local/e33070ae-9cb1-4e98-99af-c39123383ce9">
          <text>residual=-0.392 s</text>
        </comment>
      </pick>
      <pick publicID="smi:local/e6e3f317-0076-4c73-93b5-19c37c1e88f7">
        <time>
          <value>2026-02-03T06:02:56.580000Z</value>
        </time>
        <waveformID networkCode="S1" stationCode="AUSSC" locationCode="" channelCode="P"></waveformID>
        <phaseHint>P</phaseHint>
        <evaluationMode>automatic</evaluationMode>
        <evaluationStatus>preliminary</evaluationStatus>
        <comment id="smi:local/0538502d-0593-4103-b568-1363d7601300">
          <text>residual=0.648 s</text>
        </comment>
      </pick>
      <pick publicID="smi:local/165ee10a-115c-4a19-887d-0712117a4d16">
        <time>
          <value>2026-02-03T06:03:04.330000Z</value>
        </time>
        <waveformID networkCode="S1" stationCode="AUSSC" locationCode="" channelCode="S"></waveformID>
        <phaseHint>S</phaseHint>
        <evaluationMode>automatic</evaluationMode>
        <evaluationStatus>preliminary</evaluationStatus>
        <comment id="smi:local/e3171fdd-0265-4150-84c6-894071409693">
          <text>residual=0.785 s</text>
        </comment>
      </pick>
      <pick publicID="smi:local/f78753b3-6cb0-45a3-b3c3-a0c3838bf8a9">
        <time>
          <value>2026-02-03T06:02:55.340000Z</value>
        </time>
        <waveformID networkCode="VW" stationCode="BEST" locationCode="00" channelCode="P"></waveformID>
        <phaseHint>P</phaseHint>
        <evaluationMode>automatic</evaluationMode>
        <evaluationStatus>preliminary</evaluationStatus>
        <comment id="smi:local/f65b1ce2-acd1-4849-9d08-a6049d68d54c">
          <text>residual=-0.722 s</text>
        </comment>
      </pick>
      <pick publicID="smi:local/ba4585cb-eff0-42d3-a609-54581261f3aa">
        <time>
          <value>2026-02-03T06:03:03.510000Z</value>
        </time>
        <waveformID networkCode="VW" stationCode="BEST" locationCode="00" channelCode="S"></waveformID>
        <phaseHint>S</phaseHint>
        <evaluationMode>automatic</evaluationMode>
        <evaluationStatus>preliminary</evaluationStatus>
        <comment id="smi:local/e512f35d-22b9-46c3-b817-7f4b5ef70161">
          <text>residual=-0.259 s</text>
        </comment>
      </pick>
      <pick publicID="smi:local/be713269-1c16-42cc-9d63-17f94042c6f5">
        <time>
          <value>2026-02-03T06:02:56.670000Z</value>
        </time>
        <waveformID networkCode="VW" stationCode="BRIG" locationCode="00" channelCode="P"></waveformID>
        <phaseHint>P</phaseHint>
        <evaluationMode>automatic</evaluationMode>
        <evaluationStatus>preliminary</evaluationStatus>
        <comment id="smi:local/5535174f-f96f-4be2-a3d8-c5507abaae46">
          <text>residual=-0.207 s</text>
        </comment>
      </pick>
      <pick publicID="smi:local/b17755d9-4033-4e3c-b78b-5b1ecbfabf3d">
        <time>
          <value>2026-02-03T06:03:04.650000Z</value>
        </time>
        <waveformID networkCode="VW" stationCode="BRIG" locationCode="00" channelCode="S"></waveformID>
        <phaseHint>S</phaseHint>
        <evaluationMode>automatic</evaluationMode>
        <evaluationStatus>preliminary</evaluationStatus>
        <comment id="smi:local/f7b7996d-3c50-49f0-92f4-76e30f8ecec8">
          <text>residual=-0.529 s</text>
        </comment>
      </pick>
      <pick publicID="smi:local/ea9be06b-f5b8-43b0-855e-2a3391b6e366">
        <time>
          <value>2026-02-03T06:02:49.560000Z</value>
        </time>
        <waveformID networkCode="VW" stationCode="CLIF" locationCode="00" channelCode="P"></waveformID>
        <phaseHint>P</phaseHint>
        <evaluationMode>automatic</evaluationMode>
        <evaluationStatus>preliminary</evaluationStatus>
        <comment id="smi:local/ec6ed32d-7624-4c82-a857-9d410ab0742e">
          <text>residual=0.274 s</text>
        </comment>
      </pick>
      <pick publicID="smi:local/ab0a4f69-b534-4c82-b5d0-530ab6766aff">
        <time>
          <value>2026-02-03T06:02:52.340000Z</value>
        </time>
        <waveformID networkCode="VW" stationCode="CLIF" locationCode="00" channelCode="S"></waveformID>
        <phaseHint>S</phaseHint>
        <evaluationMode>automatic</evaluationMode>
        <evaluationStatus>preliminary</evaluationStatus>
        <comment id="smi:local/5ceab17b-ce42-4214-9890-aa511ba3bbd1">
          <text>residual=0.293 s</text>
        </comment>
      </pick>
      <pick publicID="smi:local/887ccb0e-fd8e-4bf3-94a6-27eb70b1434b">
        <time>
          <value>2026-02-03T06:02:58.370000Z</value>
        </time>
        <waveformID networkCode="VW" stationCode="HDDL" locationCode="00" channelCode="P"></waveformID>
        <phaseHint>P</phaseHint>
        <evaluationMode>automatic</evaluationMode>
        <evaluationStatus>preliminary</evaluationStatus>
        <comment id="smi:local/880d88ce-0e93-4d89-81f2-38c430ea5638">
          <text>residual=-0.439 s</text>
        </comment>
      </pick>
      <pick publicID="smi:local/19635541-2960-459b-8e56-f981e2d6eefa">
        <time>
          <value>2026-02-03T06:03:08.350000Z</value>
        </time>
        <waveformID networkCode="VW" stationCode="HDDL" locationCode="00" channelCode="S"></waveformID>
        <phaseHint>S</phaseHint>
        <evaluationMode>automatic</evaluationMode>
        <evaluationStatus>preliminary</evaluationStatus>
        <comment id="smi:local/178fba83-4f47-41b5-b804-02d26f51bcdc">
          <text>residual=-0.172 s</text>
        </comment>
      </pick>
      <pick publicID="smi:local/4efc7aaf-57bf-4c09-952f-30199fbd48ef">
        <time>
          <value>2026-02-03T06:02:57.170000Z</value>
        </time>
        <waveformID networkCode="VW" stationCode="LOCU" locationCode="00" channelCode="P"></waveformID>
        <phaseHint>P</phaseHint>
        <evaluationMode>automatic</evaluationMode>
        <evaluationStatus>preliminary</evaluationStatus>
        <comment id="smi:local/77457409-f735-4674-8686-fd9326b57aa7">
          <text>residual=0.229 s</text>
        </comment>
      </pick>
      <pick publicID="smi:local/2e018d26-0eca-48c9-8020-581b9e12a0a4">
        <time>
          <value>2026-02-03T06:03:05.870000Z</value>
        </time>
        <waveformID networkCode="VW" stationCode="LOCU" locationCode="00" channelCode="S"></waveformID>
        <phaseHint>S</phaseHint>
        <evaluationMode>automatic</evaluationMode>
        <evaluationStatus>preliminary</evaluationStatus>
        <comment id="smi:local/aa94c001-14e6-4d5b-8c79-b23f1f03d981">
          <text>residual=0.579 s</text>
        </comment>
      </pick>
      <pick publicID="smi:local/a28a7f0f-956a-42c7-a979-3d5ccda6a711">
        <time>
          <value>2026-02-03T06:02:54.040000Z</value>
        </time>
        <waveformID networkCode="VW" stationCode="MARD" locationCode="00" channelCode="P"></waveformID>
        <phaseHint>P</phaseHint>
        <evaluationMode>automatic</evaluationMode>
        <evaluationStatus>preliminary</evaluationStatus>
        <comment id="smi:local/938906d0-2e24-44dd-836e-72b515663144">
          <text>residual=-0.071 s</text>
        </comment>
      </pick>
      <pick publicID="smi:local/993f8960-9502-4852-94b2-b8227732cb6c">
        <time>
          <value>2026-02-03T06:02:59.840000Z</value>
        </time>
        <waveformID networkCode="VW" stationCode="MARD" locationCode="00" channelCode="S"></waveformID>
        <phaseHint>S</phaseHint>
        <evaluationMode>automatic</evaluationMode>
        <evaluationStatus>preliminary</evaluationStatus>
        <comment id="smi:local/11605490-0b66-45be-a217-5c2bd567c18e">
          <text>residual=-0.554 s</text>
        </comment>
      </pick>
      <pick publicID="smi:local/1eca7acd-a610-4c94-ae5a-00a36acf7898">
        <time>
          <value>2026-02-03T06:02:50.800000Z</value>
        </time>
        <waveformID networkCode="VW" stationCode="NARR" locationCode="00" channelCode="P"></waveformID>
        <phaseHint>P</phaseHint>
        <evaluationMode>automatic</evaluationMode>
        <evaluationStatus>preliminary</evaluationStatus>
        <comment id="smi:local/2bb572b3-a1c8-4abe-8889-46eb7d45e1cc">
          <text>residual=0.197 s</text>
        </comment>
      </pick>
      <pick publicID="smi:local/9a63266c-d2be-4349-adab-4d2ae721c82b">
        <time>
          <value>2026-02-03T06:02:54.420000Z</value>
        </time>
        <waveformID networkCode="VW" stationCode="NARR" locationCode="00" channelCode="S"></waveformID>
        <phaseHint>S</phaseHint>
        <evaluationMode>automatic</evaluationMode>
        <evaluationStatus>preliminary</evaluationStatus>
        <comment id="smi:local/25bb865b-ca8e-4e22-99ef-f91bcc415a94">
          <text>residual=0.095 s</text>
        </comment>
      </pick>
      <pick publicID="smi:local/536dbc71-fd01-4c4d-a12e-9fd326ff3f2b">
        <time>
          <value>2026-02-03T06:02:55.530000Z</value>
        </time>
        <waveformID networkCode="VW" stationCode="SGWU" locationCode="00" channelCode="P"></waveformID>
        <phaseHint>P</phaseHint>
        <evaluationMode>automatic</evaluationMode>
        <evaluationStatus>preliminary</evaluationStatus>
        <comment id="smi:local/ec1e57ca-ffbe-4f8c-b90d-27efa48bedc4">
          <text>residual=-0.014 s</text>
        </comment>
      </pick>
      <pick publicID="smi:local/84707bc8-1325-4761-a1d8-24b0041184d4">
        <time>
          <value>2026-02-03T06:03:03.100000Z</value>
        </time>
        <waveformID networkCode="VW" stationCode="SGWU" locationCode="00" channelCode="S"></waveformID>
        <phaseHint>S</phaseHint>
        <evaluationMode>automatic</evaluationMode>
        <evaluationStatus>preliminary</evaluationStatus>
        <comment id="smi:local/f9c3f0da-fbf6-4c9f-ba9c-dc23729b2e3c">
          <text>residual=0.226 s</text>
        </comment>
      </pick>
      <pick publicID="smi:local/d66628e9-3c14-4e78-bd8c-68beb17faeaf">
        <time>
          <value>2026-02-03T06:02:56.820000Z</value>
        </time>
        <waveformID networkCode="VW" stationCode="STBK" locationCode="00" channelCode="P"></waveformID>
        <phaseHint>P</phaseHint>
        <evaluationMode>automatic</evaluationMode>
        <evaluationStatus>preliminary</evaluationStatus>
        <comment id="smi:local/bcbe3ded-a8e1-4999-a519-1fc1871b2861">
          <text>residual=0.235 s</text>
        </comment>
      </pick>
      <pick publicID="smi:local/32b3ac59-b04b-4822-9b93-4b1058e70089">
        <time>
          <value>2026-02-03T06:03:05.740000Z</value>
        </time>
        <waveformID networkCode="VW" stationCode="STBK" locationCode="00" channelCode="S"></waveformID>
        <phaseHint>S</phaseHint>
        <evaluationMode>automatic</evaluationMode>
        <evaluationStatus>preliminary</evaluationStatus>
        <comment id="smi:local/00bfebfd-30c5-45d4-a5f3-f18be6bfbc1a">
          <text>residual=1.066 s</text>
        </comment>
      </pick>
      <pick publicID="smi:local/414a6233-b393-435a-a170-7919cd75781c">
        <time>
          <value>2026-02-03T06:02:51.940000Z</value>
        </time>
        <waveformID networkCode="VW" stationCode="TRPU" locationCode="00" channelCode="P"></waveformID>
        <phaseHint>P</phaseHint>
        <evaluationMode>automatic</evaluationMode>
        <evaluationStatus>preliminary</evaluationStatus>
        <comment id="smi:local/05184e0e-0308-4a98-a225-8c727ec5b5d8">
          <text>residual=0.071 s</text>
        </comment>
      </pick>
      <pick publicID="smi:local/aafd64a8-14fb-4fdf-a583-f0c920714075">
        <time>
          <value>2026-02-03T06:02:56.840000Z</value>
        </time>
        <waveformID networkCode="VW" stationCode="TRPU" locationCode="00" channelCode="S"></waveformID>
        <phaseHint>S</phaseHint>
